[{"OBJECT_NAME":"STARLINK-1738","OBJECT_ID":"2020-062M","EPOCH":"2026-03-05T19:37:45.009984","MEAN_MOTION":16.03197591,"ECCENTRICITY":0.0004306,"INCLINATION":53.0263,"RA_OF_ASC_NODE":300.3844,"ARG_OF_PERICENTER":167.3478,"MEAN_ANOMALY":192.7661,"EPHEMERIS_TYPE":0,"CLASSIFICATION_TYPE":"U","NORAD_CAT_ID":46336,"ELEMENT_SET_NO":999,"REV_AT_EPOCH":30503,"BSTAR":0.0010358,"MEAN_MOTION_DOT":0.00652512,"MEAN_MOTION_DDOT":0.00021186},{"OBJECT_NAME":"STARLINK-1687","OBJECT_ID":"2020-070K","EPOCH":"2026-03-05T14:00:51.176160","MEAN_MOTION":16.3402468,"ECCENTRICITY":0.0002152,"INCLINATION":53.0221,"RA_OF_ASC_NODE":111.2792,"ARG_OF_PERICENTER":340.9442,"MEAN_ANOMALY":19.1521,"EPHEMERIS_TYPE":0,"CLASSIFICATION_TYPE":"U","NORAD_CAT_ID":46541,"ELEMENT_SET_NO":999,"REV_AT_EPOCH":30005,"BSTAR":0.00097564,"MEAN_MOTION_DOT":0.06805165,"MEAN_MOTION_DDOT":1.2231e-5},{"OBJECT_NAME":"STARLINK-1712","OBJECT_ID":"2020-070BB","EPOCH":"2026-03-05T18:00:00.998784","MEAN_MOTION":15.97650748,"ECCENTRICITY":0.0006539,"INCLINATION":53.0285,"RA_OF_ASC_NODE":100.6595,"ARG_OF_PERICENTER":350.7701,"MEAN_ANOMALY":112.9008,"EPHEMERIS_TYPE":0,"CLASSIFICATION_TYPE":"U","NORAD_CAT_ID":46581,"ELEMENT_SET_NO":999,"REV_AT_EPOCH":602,"BSTAR":0.0011106,"MEAN_MOTION_DOT":0.00508802,"MEAN_MOTION_DDOT":0.00012002},{"OBJECT_NAME":"STARLINK-1955","OBJECT_ID":"2021-009J","EPOCH":"2026-03-05T18:00:00.998784","MEAN_MOTION":15.94153671,"ECCENTRICITY":0.0003356,"INCLINATION":53.0356,"RA_OF_ASC_NODE":345.2918,"ARG_OF_PERICENTER":147.5271,"MEAN_ANOMALY":122.3933,"EPHEMERIS_TYPE":0,"CLASSIFICATION_TYPE":"U","NORAD_CAT_ID":47556,"ELEMENT_SET_NO":999,"REV_AT_EPOCH":602,"BSTAR":0.0012425,"MEAN_MOTION_DOT":0.00469592,"MEAN_MOTION_DDOT":9.8875e-5},{"OBJECT_NAME":"WILDTRACKCUBE-SIMBA","OBJECT_ID":"2021-022K","EPOCH":"2026-03-05T17:48:33.131232","MEAN_MOTION":16.30913111,"ECCENTRICITY":0.0004876,"INCLINATION":97.3756,"RA_OF_ASC_NODE":346.8405,"ARG_OF_PERICENTER":163.9164,"MEAN_ANOMALY":196.2286,"EPHEMERIS_TYPE":0,"CLASSIFICATION_TYPE":"U","NORAD_CAT_ID":47941,"ELEMENT_SET_NO":999,"REV_AT_EPOCH":27521,"BSTAR":0.0010545,"MEAN_MOTION_DOT":0.04989897,"MEAN_MOTION_DDOT":2.5292e-6},{"OBJECT_NAME":"JILIN-1 GAOFEN 3D02","OBJECT_ID":"2021-061C","EPOCH":"2026-03-05T18:21:02.062944","MEAN_MOTION":16.19259361,"ECCENTRICITY":0.0006067,"INCLINATION":97.2884,"RA_OF_ASC_NODE":145.5084,"ARG_OF_PERICENTER":259.2486,"MEAN_ANOMALY":100.812,"EPHEMERIS_TYPE":0,"CLASSIFICATION_TYPE":"U","NORAD_CAT_ID":49005,"ELEMENT_SET_NO":999,"REV_AT_EPOCH":26018,"BSTAR":0.0011297,"MEAN_MOTION_DOT":0.02009247,"MEAN_MOTION_DDOT":2.3637e-6},{"OBJECT_NAME":"STARLINK-3269","OBJECT_ID":"2021-125AQ","EPOCH":"2026-03-05T16:08:36.437280","MEAN_MOTION":16.37862152,"ECCENTRICITY":0.0006903,"INCLINATION":53.1877,"RA_OF_ASC_NODE":150.6036,"ARG_OF_PERICENTER":320.1175,"MEAN_ANOMALY":39.9364,"EPHEMERIS_TYPE":0,"CLASSIFICATION_TYPE":"U","NORAD_CAT_ID":50194,"ELEMENT_SET_NO":999,"REV_AT_EPOCH":23768,"BSTAR":0.00095492,"MEAN_MOTION_DOT":0.10242903,"MEAN_MOTION_DDOT":1.2379e-5},{"OBJECT_NAME":"LYNK TOWER 1","OBJECT_ID":"2022-033F","EPOCH":"2026-03-05T05:06:32.125248","MEAN_MOTION":16.11609324,"ECCENTRICITY":0.0005538,"INCLINATION":97.2535,"RA_OF_ASC_NODE":169.5237,"ARG_OF_PERICENTER":205.3975,"MEAN_ANOMALY":154.7038,"EPHEMERIS_TYPE":0,"CLASSIFICATION_TYPE":"U","NORAD_CAT_ID":52162,"ELEMENT_SET_NO":999,"REV_AT_EPOCH":22052,"BSTAR":0.00076195,"MEAN_MOTION_DOT":0.00782842,"MEAN_MOTION_DDOT":0.00035169},{"OBJECT_NAME":"STARLINK-3767","OBJECT_ID":"2022-045AX","EPOCH":"2026-03-05T16:32:03.206400","MEAN_MOTION":16.03275308,"ECCENTRICITY":0.0002785,"INCLINATION":53.2111,"RA_OF_ASC_NODE":192.6886,"ARG_OF_PERICENTER":181.7479,"MEAN_ANOMALY":178.3545,"EPHEMERIS_TYPE":0,"CLASSIFICATION_TYPE":"U","NORAD_CAT_ID":52376,"ELEMENT_SET_NO":999,"REV_AT_EPOCH":21552,"BSTAR":0.000949,"MEAN_MOTION_DOT":0.00600067,"MEAN_MOTION_DDOT":0.00017905},{"OBJECT_NAME":"NUSAT-28 (ALICE LEE)","OBJECT_ID":"2022-057R","EPOCH":"2026-03-05T16:57:04.093632","MEAN_MOTION":15.98030214,"ECCENTRICITY":0.0007486,"INCLINATION":97.5004,"RA_OF_ASC_NODE":214.1652,"ARG_OF_PERICENTER":287.2444,"MEAN_ANOMALY":72.8013,"EPHEMERIS_TYPE":0,"CLASSIFICATION_TYPE":"U","NORAD_CAT_ID":52747,"ELEMENT_SET_NO":999,"REV_AT_EPOCH":21141,"BSTAR":0.0011803,"MEAN_MOTION_DOT":0.00535935,"MEAN_MOTION_DDOT":0.0001245},{"OBJECT_NAME":"OBJECT H","OBJECT_ID":"2023-085H","EPOCH":"2026-03-05T19:09:26.779104","MEAN_MOTION":15.92362353,"ECCENTRICITY":0.0006448,"INCLINATION":97.4641,"RA_OF_ASC_NODE":191.0559,"ARG_OF_PERICENTER":293.2595,"MEAN_ANOMALY":66.8,"EPHEMERIS_TYPE":0,"CLASSIFICATION_TYPE":"U","NORAD_CAT_ID":57011,"ELEMENT_SET_NO":999,"REV_AT_EPOCH":15195,"BSTAR":0.0015733,"MEAN_MOTION_DOT":0.00527346,"MEAN_MOTION_DDOT":0.00011151},{"OBJECT_NAME":"SHIYAN-25 (SY-25)","OBJECT_ID":"2023-087A","EPOCH":"2026-03-05T18:42:10.804608","MEAN_MOTION":16.01010976,"ECCENTRICITY":0.0011136,"INCLINATION":96.7158,"RA_OF_ASC_NODE":125.8776,"ARG_OF_PERICENTER":249.2947,"MEAN_ANOMALY":110.7141,"EPHEMERIS_TYPE":0,"CLASSIFICATION_TYPE":"U","NORAD_CAT_ID":57047,"ELEMENT_SET_NO":999,"REV_AT_EPOCH":15826,"BSTAR":-0.00033062,"MEAN_MOTION_DOT":-0.00179383,"MEAN_MOTION_DDOT":1.4045e-5},{"OBJECT_NAME":"STARLINK-6151","OBJECT_ID":"2023-090T","EPOCH":"2026-03-05T17:14:57.079680","MEAN_MOTION":16.23461431,"ECCENTRICITY":0.0013773,"INCLINATION":42.9671,"RA_OF_ASC_NODE":172.5167,"ARG_OF_PERICENTER":355.2006,"MEAN_ANOMALY":4.8746,"EPHEMERIS_TYPE":0,"CLASSIFICATION_TYPE":"U","NORAD_CAT_ID":57118,"ELEMENT_SET_NO":999,"REV_AT_EPOCH":15124,"BSTAR":0.00090287,"MEAN_MOTION_DOT":0.02472234,"MEAN_MOTION_DDOT":8.9966e-6},{"OBJECT_NAME":"STARLINK-30210","OBJECT_ID":"2023-096C","EPOCH":"2026-03-05T16:59:31.782336","MEAN_MOTION":16.06783873,"ECCENTRICITY":0.0023197,"INCLINATION":42.962,"RA_OF_ASC_NODE":160.4375,"ARG_OF_PERICENTER":14.5012,"MEAN_ANOMALY":345.6529,"EPHEMERIS_TYPE":0,"CLASSIFICATION_TYPE":"U","NORAD_CAT_ID":57292,"ELEMENT_SET_NO":999,"REV_AT_EPOCH":14787,"BSTAR":0.0013961,"MEAN_MOTION_DOT":0.01148567,"MEAN_MOTION_DDOT":0.00075683},{"OBJECT_NAME":"STARLINK-30232","OBJECT_ID":"2023-096P","EPOCH":"2026-03-05T17:33:37.963296","MEAN_MOTION":16.07305675,"ECCENTRICITY":0.0022549,"INCLINATION":42.9696,"RA_OF_ASC_NODE":159.8647,"ARG_OF_PERICENTER":15.6087,"MEAN_ANOMALY":344.5485,"EPHEMERIS_TYPE":0,"CLASSIFICATION_TYPE":"U","NORAD_CAT_ID":57303,"ELEMENT_SET_NO":999,"REV_AT_EPOCH":14786,"BSTAR":0.0011423,"MEAN_MOTION_DOT":0.00973119,"MEAN_MOTION_DDOT":0.0005232}]
