STARLINK-1738           
1 46336U 20062M   26064.81788206  .00652512  21186-3  10358-2 0  9991
2 46336  53.0263 300.3844 0004306 167.3478 192.7661 16.03197591305039
STARLINK-1687           
1 46541U 20070K   26064.58392565  .06805165  12231-4  97564-3 0  9998
2 46541  53.0221 111.2792 0002152 340.9442  19.1521 16.34024680300055
STARLINK-1712           
1 46581U 20070BB  26064.75001156  .00508802  12002-3  11106-2 0  9998
2 46581  53.0285 100.6595 0006539 350.7701 112.9008 15.97650748  6022
STARLINK-1955           
1 47556U 21009J   26064.75001156  .00469592  98875-4  12425-2 0  9994
2 47556  53.0356 345.2918 0003356 147.5271 122.3933 15.94153671  6020
WILDTRACKCUBE-SIMBA     
1 47941U 21022K   26064.74205013  .04989897  25292-5  10545-2 0  9998
2 47941  97.3756 346.8405 0004876 163.9164 196.2286 16.30913111275216
JILIN-1 GAOFEN 3D02     
1 49005U 21061C   26064.76460721  .02009247  23637-5  11297-2 0  9991
2 49005  97.2884 145.5084 0006067 259.2486 100.8120 16.19259361260182
STARLINK-3269           
1 50194U 21125AQ  26064.67264395  .10242903  12379-4  95492-3 0  9999
2 50194  53.1877 150.6036 0006903 320.1175  39.9364 16.37862152237681
LYNK TOWER 1            
1 52162U 22033F   26064.21287182  .00782842  35169-3  76195-3 0  9994
2 52162  97.2535 169.5237 0005538 205.3975 154.7038 16.11609324220526
STARLINK-3767           
1 52376U 22045AX  26064.68892600  .00600067  17905-3  94900-3 0  9992
2 52376  53.2111 192.6886 0002785 181.7479 178.3545 16.03275308215520
NUSAT-28 (ALICE LEE)    
1 52747U 22057R   26064.70629738  .00535935  12450-3  11803-2 0  9991
2 52747  97.5004 214.1652 0007486 287.2444  72.8013 15.98030214211412
2023-085H               
1 57011U 23085H   26064.79822661  .00527346  11151-3  15733-2 0  9991
2 57011  97.4641 191.0559 0006448 293.2595  66.8000 15.92362353151954
SHIYAN-25 (SY-25)       
1 57047U 23087A   26064.77929172 -.00179383  14045-4 -33062-3 0  9993
2 57047  96.7158 125.8776 0011136 249.2947 110.7141 16.01010976158264
STARLINK-6151           
1 57118U 23090T   26064.71871620  .02472234  89966-5  90287-3 0  9992
2 57118  42.9671 172.5167 0013773 355.2006   4.8746 16.23461431151247
STARLINK-30210          
1 57292U 23096C   26064.70800674  .01148567  75683-3  13961-2 0  9991
2 57292  42.9620 160.4375 0023197  14.5012 345.6529 16.06783873147871
STARLINK-30232          
1 57303U 23096P   26064.73168939  .00973119  52320-3  11423-2 0  9990
2 57303  42.9696 159.8647 0022549  15.6087 344.5485 16.07305675147864
